ONEWEB-0273             
1 48991U 21060AA  23222.29633241 -.00000002  00000+0 -39242-4 0  9998
2 48991  87.8990  76.1843 0001800  92.7086 267.4251 13.16593406103799
ONEWEB-0274             
1 48992U 21060AB  23222.62565270 -.00000031  00000+0 -11418-3 0  9998
2 48992  87.8991  76.1214 0001666  94.7777 265.3544 13.16592810103871
ONEWEB-0275             
1 48993U 21060AC  23223.29907580 -.00000029  00000+0 -10836-3 0  9997
2 48993  87.8991  75.9902 0001799  86.5788 273.5549 13.16590053103885
ONEWEB-0276             
1 48994U 21060AD  23222.64888531  .00000081  00000+0  17785-3 0  9996
2 48994  87.8969  76.0885 0001747  98.0438 262.0891 13.16592972103825
ONEWEB-0277             
1 48995U 21060AE  23222.35755175  .00000031  00000+0  46675-4 0  9998
2 48995  87.8968  76.1497 0001589 102.4336 257.6973 13.16593949103765
ONEWEB-0278             
1 48996U 21060AF  23222.65099232  .00000079  00000+0  17295-3 0  9994
2 48996  87.8987  76.1031 0002148  81.7374 278.4000 13.16593282103957
ONEWEB-0279             
1 48997U 21060AG  23223.49539984  .00000079  00000+0  17380-3 0  9996
2 48997  87.8984  75.9327 0001705  85.7095 274.4231 13.16591455103987
ONEWEB-0280             
1 48998U 21060AH  23222.82620392  .00000096  00000+0  21735-3 0  9995
2 48998  87.8981  76.0678 0001444 113.5606 246.5676 13.16594961103825
