<?xml version="1.0" encoding="UTF-8"?>
<ndm xmlns:xsi="http://www.w3.org/2001/XMLSchema-instance" xsi:noNamespaceSchemaLocation="https://sanaregistry.org/r/ndmxml_unqualified/ndmxml-2.0.0-master-2.0.xsd">
<omm id="CCSDS_OMM_VERS" version="2.0">
<header><CREATION_DATE/><ORIGINATOR/></header><body><segment><metadata><OBJECT_NAME>ONEWEB-0273</OBJECT_NAME><OBJECT_ID>2021-060AA</OBJECT_ID><CENTER_NAME>EARTH</CENTER_NAME><REF_FRAME>TEME</REF_FRAME><TIME_SYSTEM>UTC</TIME_SYSTEM><MEAN_ELEMENT_THEORY>SGP4</MEAN_ELEMENT_THEORY></metadata><data><meanElements><EPOCH>2023-08-10T07:06:43.120224</EPOCH><MEAN_MOTION>13.16593406</MEAN_MOTION><ECCENTRICITY>.00018</ECCENTRICITY><INCLINATION>87.8990</INCLINATION><RA_OF_ASC_NODE>76.1843</RA_OF_ASC_NODE><ARG_OF_PERICENTER>92.7086</ARG_OF_PERICENTER><MEAN_ANOMALY>267.4251</MEAN_ANOMALY></meanElements><tleParameters><EPHEMERIS_TYPE>0</EPHEMERIS_TYPE><CLASSIFICATION_TYPE>U</CLASSIFICATION_TYPE><NORAD_CAT_ID>48991</NORAD_CAT_ID><ELEMENT_SET_NO>999</ELEMENT_SET_NO><REV_AT_EPOCH>10379</REV_AT_EPOCH><BSTAR>-.39242E-4</BSTAR><MEAN_MOTION_DOT>-.2E-7</MEAN_MOTION_DOT><MEAN_MOTION_DDOT>0</MEAN_MOTION_DDOT></tleParameters></data></segment></body></omm>
<omm id="CCSDS_OMM_VERS" version="2.0">
<header><CREATION_DATE/><ORIGINATOR/></header><body><segment><metadata><OBJECT_NAME>ONEWEB-0274</OBJECT_NAME><OBJECT_ID>2021-060AB</OBJECT_ID><CENTER_NAME>EARTH</CENTER_NAME><REF_FRAME>TEME</REF_FRAME><TIME_SYSTEM>UTC</TIME_SYSTEM><MEAN_ELEMENT_THEORY>SGP4</MEAN_ELEMENT_THEORY></metadata><data><meanElements><EPOCH>2023-08-10T15:00:56.393280</EPOCH><MEAN_MOTION>13.16592810</MEAN_MOTION><ECCENTRICITY>.0001666</ECCENTRICITY><INCLINATION>87.8991</INCLINATION><RA_OF_ASC_NODE>76.1214</RA_OF_ASC_NODE><ARG_OF_PERICENTER>94.7777</ARG_OF_PERICENTER><MEAN_ANOMALY>265.3544</MEAN_ANOMALY></meanElements><tleParameters><EPHEMERIS_TYPE>0</EPHEMERIS_TYPE><CLASSIFICATION_TYPE>U</CLASSIFICATION_TYPE><NORAD_CAT_ID>48992</NORAD_CAT_ID><ELEMENT_SET_NO>999</ELEMENT_SET_NO><REV_AT_EPOCH>10387</REV_AT_EPOCH><BSTAR>-.11418E-3</BSTAR><MEAN_MOTION_DOT>-.31E-6</MEAN_MOTION_DOT><MEAN_MOTION_DDOT>0</MEAN_MOTION_DDOT></tleParameters></data></segment></body></omm>
<omm id="CCSDS_OMM_VERS" version="2.0">
<header><CREATION_DATE/><ORIGINATOR/></header><body><segment><metadata><OBJECT_NAME>ONEWEB-0275</OBJECT_NAME><OBJECT_ID>2021-060AC</OBJECT_ID><CENTER_NAME>EARTH</CENTER_NAME><REF_FRAME>TEME</REF_FRAME><TIME_SYSTEM>UTC</TIME_SYSTEM><MEAN_ELEMENT_THEORY>SGP4</MEAN_ELEMENT_THEORY></metadata><data><meanElements><EPOCH>2023-08-11T07:10:40.149120</EPOCH><MEAN_MOTION>13.16590053</MEAN_MOTION><ECCENTRICITY>.0001799</ECCENTRICITY><INCLINATION>87.8991</INCLINATION><RA_OF_ASC_NODE>75.9902</RA_OF_ASC_NODE><ARG_OF_PERICENTER>86.5788</ARG_OF_PERICENTER><MEAN_ANOMALY>273.5549</MEAN_ANOMALY></meanElements><tleParameters><EPHEMERIS_TYPE>0</EPHEMERIS_TYPE><CLASSIFICATION_TYPE>U</CLASSIFICATION_TYPE><NORAD_CAT_ID>48993</NORAD_CAT_ID><ELEMENT_SET_NO>999</ELEMENT_SET_NO><REV_AT_EPOCH>10388</REV_AT_EPOCH><BSTAR>-.10836E-3</BSTAR><MEAN_MOTION_DOT>-.29E-6</MEAN_MOTION_DOT><MEAN_MOTION_DDOT>0</MEAN_MOTION_DDOT></tleParameters></data></segment></body></omm>
<omm id="CCSDS_OMM_VERS" version="2.0">
<header><CREATION_DATE/><ORIGINATOR/></header><body><segment><metadata><OBJECT_NAME>ONEWEB-0276</OBJECT_NAME><OBJECT_ID>2021-060AD</OBJECT_ID><CENTER_NAME>EARTH</CENTER_NAME><REF_FRAME>TEME</REF_FRAME><TIME_SYSTEM>UTC</TIME_SYSTEM><MEAN_ELEMENT_THEORY>SGP4</MEAN_ELEMENT_THEORY></metadata><data><meanElements><EPOCH>2023-08-10T15:34:23.690784</EPOCH><MEAN_MOTION>13.16592972</MEAN_MOTION><ECCENTRICITY>.0001747</ECCENTRICITY><INCLINATION>87.8969</INCLINATION><RA_OF_ASC_NODE>76.0885</RA_OF_ASC_NODE><ARG_OF_PERICENTER>98.0438</ARG_OF_PERICENTER><MEAN_ANOMALY>262.0891</MEAN_ANOMALY></meanElements><tleParameters><EPHEMERIS_TYPE>0</EPHEMERIS_TYPE><CLASSIFICATION_TYPE>U</CLASSIFICATION_TYPE><NORAD_CAT_ID>48994</NORAD_CAT_ID><ELEMENT_SET_NO>999</ELEMENT_SET_NO><REV_AT_EPOCH>10382</REV_AT_EPOCH><BSTAR>.17785E-3</BSTAR><MEAN_MOTION_DOT>.81E-6</MEAN_MOTION_DOT><MEAN_MOTION_DDOT>0</MEAN_MOTION_DDOT></tleParameters></data></segment></body></omm>
<omm id="CCSDS_OMM_VERS" version="2.0">
<header><CREATION_DATE/><ORIGINATOR/></header><body><segment><metadata><OBJECT_NAME>ONEWEB-0277</OBJECT_NAME><OBJECT_ID>2021-060AE</OBJECT_ID><CENTER_NAME>EARTH</CENTER_NAME><REF_FRAME>TEME</REF_FRAME><TIME_SYSTEM>UTC</TIME_SYSTEM><MEAN_ELEMENT_THEORY>SGP4</MEAN_ELEMENT_THEORY></metadata><data><meanElements><EPOCH>2023-08-10T08:34:52.471200</EPOCH><MEAN_MOTION>13.16593949</MEAN_MOTION><ECCENTRICITY>.0001589</ECCENTRICITY><INCLINATION>87.8968</INCLINATION><RA_OF_ASC_NODE>76.1497</RA_OF_ASC_NODE><ARG_OF_PERICENTER>102.4336</ARG_OF_PERICENTER><MEAN_ANOMALY>257.6973</MEAN_ANOMALY></meanElements><tleParameters><EPHEMERIS_TYPE>0</EPHEMERIS_TYPE><CLASSIFICATION_TYPE>U</CLASSIFICATION_TYPE><NORAD_CAT_ID>48995</NORAD_CAT_ID><ELEMENT_SET_NO>999</ELEMENT_SET_NO><REV_AT_EPOCH>10376</REV_AT_EPOCH><BSTAR>.46675E-4</BSTAR><MEAN_MOTION_DOT>.31E-6</MEAN_MOTION_DOT><MEAN_MOTION_DDOT>0</MEAN_MOTION_DDOT></tleParameters></data></segment></body></omm>
<omm id="CCSDS_OMM_VERS" version="2.0">
<header><CREATION_DATE/><ORIGINATOR/></header><body><segment><metadata><OBJECT_NAME>ONEWEB-0278</OBJECT_NAME><OBJECT_ID>2021-060AF</OBJECT_ID><CENTER_NAME>EARTH</CENTER_NAME><REF_FRAME>TEME</REF_FRAME><TIME_SYSTEM>UTC</TIME_SYSTEM><MEAN_ELEMENT_THEORY>SGP4</MEAN_ELEMENT_THEORY></metadata><data><meanElements><EPOCH>2023-08-10T15:37:25.736448</EPOCH><MEAN_MOTION>13.16593282</MEAN_MOTION><ECCENTRICITY>.0002148</ECCENTRICITY><INCLINATION>87.8987</INCLINATION><RA_OF_ASC_NODE>76.1031</RA_OF_ASC_NODE><ARG_OF_PERICENTER>81.7374</ARG_OF_PERICENTER><MEAN_ANOMALY>278.4000</MEAN_ANOMALY></meanElements><tleParameters><EPHEMERIS_TYPE>0</EPHEMERIS_TYPE><CLASSIFICATION_TYPE>U</CLASSIFICATION_TYPE><NORAD_CAT_ID>48996</NORAD_CAT_ID><ELEMENT_SET_NO>999</ELEMENT_SET_NO><REV_AT_EPOCH>10395</REV_AT_EPOCH><BSTAR>.17295E-3</BSTAR><MEAN_MOTION_DOT>.79E-6</MEAN_MOTION_DOT><MEAN_MOTION_DDOT>0</MEAN_MOTION_DDOT></tleParameters></data></segment></body></omm>
<omm id="CCSDS_OMM_VERS" version="2.0">
<header><CREATION_DATE/><ORIGINATOR/></header><body><segment><metadata><OBJECT_NAME>ONEWEB-0279</OBJECT_NAME><OBJECT_ID>2021-060AG</OBJECT_ID><CENTER_NAME>EARTH</CENTER_NAME><REF_FRAME>TEME</REF_FRAME><TIME_SYSTEM>UTC</TIME_SYSTEM><MEAN_ELEMENT_THEORY>SGP4</MEAN_ELEMENT_THEORY></metadata><data><meanElements><EPOCH>2023-08-11T11:53:22.546176</EPOCH><MEAN_MOTION>13.16591455</MEAN_MOTION><ECCENTRICITY>.0001705</ECCENTRICITY><INCLINATION>87.8984</INCLINATION><RA_OF_ASC_NODE>75.9327</RA_OF_ASC_NODE><ARG_OF_PERICENTER>85.7095</ARG_OF_PERICENTER><MEAN_ANOMALY>274.4231</MEAN_ANOMALY></meanElements><tleParameters><EPHEMERIS_TYPE>0</EPHEMERIS_TYPE><CLASSIFICATION_TYPE>U</CLASSIFICATION_TYPE><NORAD_CAT_ID>48997</NORAD_CAT_ID><ELEMENT_SET_NO>999</ELEMENT_SET_NO><REV_AT_EPOCH>10398</REV_AT_EPOCH><BSTAR>.1738E-3</BSTAR><MEAN_MOTION_DOT>.79E-6</MEAN_MOTION_DOT><MEAN_MOTION_DDOT>0</MEAN_MOTION_DDOT></tleParameters></data></segment></body></omm>
<omm id="CCSDS_OMM_VERS" version="2.0">
<header><CREATION_DATE/><ORIGINATOR/></header><body><segment><metadata><OBJECT_NAME>ONEWEB-0280</OBJECT_NAME><OBJECT_ID>2021-060AH</OBJECT_ID><CENTER_NAME>EARTH</CENTER_NAME><REF_FRAME>TEME</REF_FRAME><TIME_SYSTEM>UTC</TIME_SYSTEM><MEAN_ELEMENT_THEORY>SGP4</MEAN_ELEMENT_THEORY></metadata><data><meanElements><EPOCH>2023-08-10T19:49:44.018688</EPOCH><MEAN_MOTION>13.16594961</MEAN_MOTION><ECCENTRICITY>.0001444</ECCENTRICITY><INCLINATION>87.8981</INCLINATION><RA_OF_ASC_NODE>76.0678</RA_OF_ASC_NODE><ARG_OF_PERICENTER>113.5606</ARG_OF_PERICENTER><MEAN_ANOMALY>246.5676</MEAN_ANOMALY></meanElements><tleParameters><EPHEMERIS_TYPE>0</EPHEMERIS_TYPE><CLASSIFICATION_TYPE>U</CLASSIFICATION_TYPE><NORAD_CAT_ID>48998</NORAD_CAT_ID><ELEMENT_SET_NO>999</ELEMENT_SET_NO><REV_AT_EPOCH>10382</REV_AT_EPOCH><BSTAR>.21735E-3</BSTAR><MEAN_MOTION_DOT>.96E-6</MEAN_MOTION_DOT><MEAN_MOTION_DDOT>0</MEAN_MOTION_DDOT></tleParameters></data></segment></body></omm>

</ndm>
